[
    {
        "Altitude(m)": 611967.2017535217,
        "Argument of Periapsis(deg)": 0.0,
        "Eccentricity": 0.0,
        "Inclination(deg)": 60.0,
        "Latitude(deg)": 59.14023075370359,
        "Longitude(deg)": 51.09194348509135,
        "Mean Anomaly(deg)": 98.18179999999998,
        "RAAN(deg)": 45.0,
        "Satellite Name": "Test1 204",
        "Satellite Number": 204,
        "Semi-Major Axis(m)": 6980739.136638005,
        "Time(s)": 0
    },
    {
        "Altitude(m)": 611934.402121323,
        "Argument of Periapsis(deg)": 0.00010418945913296404,
        "Eccentricity": 0.0,
        "Inclination(deg)": 60.0,
        "Latitude(deg)": 58.98659426904166,
        "Longitude(deg)": 52.21519217938255,
        "Mean Anomaly(deg)": 98.80190614546183,
        "RAAN(deg)": 44.99957995086026,
        "Satellite Name": "Test1 204",
        "Satellite Number": 204,
        "Semi-Major Axis(m)": 6980739.136638005,
        "Time(s)": 10
    }
]